[{"OBJECT_NAME":"STARLINK-4446","OBJECT_ID":"2022-099AS","EPOCH":"2026-03-10T00:00:02.999808","MEAN_MOTION":15.39988094,"ECCENTRICITY":0.00015463,"INCLINATION":97.6064,"RA_OF_ASC_NODE":192.0252,"ARG_OF_PERICENTER":73.6068,"MEAN_ANOMALY":208.021,"EPHEMERIS_TYPE":0,"CLASSIFICATION_TYPE":"U","NORAD_CAT_ID":53505,"ELEMENT_SET_NO":999,"REV_AT_EPOCH":561,"BSTAR":0.0069528789,"MEAN_MOTION_DOT":0.00287489,"MEAN_MOTION_DDOT":0},{"OBJECT_NAME":"ARIANE 44LP+ R\/B","OBJECT_ID":"1993-073C","EPOCH":"2026-03-09T16:40:34.957920","MEAN_MOTION":12.46158771,"ECCENTRICITY":0.16011183,"INCLINATION":6.7349,"RA_OF_ASC_NODE":152.5479,"ARG_OF_PERICENTER":344.8586,"MEAN_ANOMALY":10.865,"EPHEMERIS_TYPE":0,"CLASSIFICATION_TYPE":"U","NORAD_CAT_ID":22913,"ELEMENT_SET_NO":999,"REV_AT_EPOCH":70099,"BSTAR":0.0016180093,"MEAN_MOTION_DOT":0.00215433,"MEAN_MOTION_DDOT":-1.1407384e-5}]
